{
  "type": "FeatureCollection",
  "features": [
    {
      "type": "Feature",
      "properties": {
        "norad_id": 30893,
        "name": "FENGYUN 1C DEB",
        "group": "fengyun-1c-debris",
        "lat": -76.44574239400215,
        "lon": 62.346051699853675,
        "alt_km": 1081.7618107612507,
        "timestamp": "2025-12-25T11:37:44.714670+00:00",
        "meta_object_name": "FENGYUN 1C DEB",
        "meta_object_id": "1999-025AYF",
        "meta_epoch": "2025-12-24T21:04:37.253280",
        "meta_mean_motion": 13.94098016,
        "meta_eccentricity": 0.0309071,
        "meta_inclination": 98.2549,
        "meta_ra_of_asc_node": 24.7778,
        "meta_arg_of_pericenter": 59.0037,
        "meta_mean_anomaly": 62.9275,
        "meta_ephemeris_type": 0,
        "meta_classification_type": "U",
        "meta_norad_cat_id": 30893,
        "meta_element_set_no": 999,
        "meta_rev_at_epoch": 95054,
        "meta_bstar": 0.00083697,
        "meta_mean_motion_dot": 1.612e-05,
        "meta_mean_motion_ddot": 0,
        "tle_line1": "1 30893U 99025AYF 25358.87820895  .00001612  00000+0  83697-3 0  9993",
        "tle_line2": "2 30893  98.2549  24.7778 0309071  59.0037  62.9275 13.94098016950546"
      },
      "geometry": {
        "type": "Point",
        "coordinates": [
          62.346051699853675,
          -76.44574239400215
        ]
      }
    },
    {
      "type": "Feature",
      "properties": {
        "norad_id": 30895,
        "name": "FENGYUN 1C DEB",
        "group": "fengyun-1c-debris",
        "lat": 80.109048360521,
        "lon": -50.32886855373768,
        "alt_km": 624.0539717182128,
        "timestamp": "2025-12-25T11:37:44.714682+00:00",
        "meta_object_name": "FENGYUN 1C DEB",
        "meta_object_id": "1999-025AYH",
        "meta_epoch": "2025-12-24T03:28:14.481984",
        "meta_mean_motion": 14.31571229,
        "meta_eccentricity": 0.02182764,
        "meta_inclination": 98.7175,
        "meta_ra_of_asc_node": 66.6884,
        "meta_arg_of_pericenter": 90.7256,
        "meta_mean_anomaly": 301.9835,
        "meta_ephemeris_type": 0,
        "meta_classification_type": "U",
        "meta_norad_cat_id": 30895,
        "meta_element_set_no": 999,
        "meta_rev_at_epoch": 97956,
        "meta_bstar": 0.00027034403,
        "meta_mean_motion_dot": 8.85e-06,
        "meta_mean_motion_ddot": 0,
        "tle_line1": "1 30895U 99025AYH 25358.14461206  .00000885  00000+0  27034-3 0  9996",
        "tle_line2": "2 30895  98.7175  66.6884 0218276  90.7256 301.9835 14.31571229979567"
      },
      "geometry": {
        "type": "Point",
        "coordinates": [
          -50.32886855373768,
          80.109048360521
        ]
      }
    },
    {
      "type": "Feature",
      "properties": {
        "norad_id": 30898,
        "name": "FENGYUN 1C DEB",
        "group": "fengyun-1c-debris",
        "lat": 61.79119803862319,
        "lon": 110.73083100383658,
        "alt_km": 467.71719889919405,
        "timestamp": "2025-12-25T11:37:44.714695+00:00",
        "meta_object_name": "FENGYUN 1C DEB",
        "meta_object_id": "1999-025AYL",
        "meta_epoch": "2025-12-25T00:05:27.138912",
        "meta_mean_motion": 15.23871046,
        "meta_eccentricity": 0.0041577,
        "meta_inclination": 99.0256,
        "meta_ra_of_asc_node": 272.9152,
        "meta_arg_of_pericenter": 73.1873,
        "meta_mean_anomaly": 287.3914,
        "meta_ephemeris_type": 0,
        "meta_classification_type": "U",
        "meta_norad_cat_id": 30898,
        "meta_element_set_no": 999,
        "meta_rev_at_epoch": 66558,
        "meta_bstar": 0.0036665,
        "meta_mean_motion_dot": 0.00091568,
        "meta_mean_motion_ddot": 0,
        "tle_line1": "1 30898U 99025AYL 25359.00378633  .00091568  00000+0  36665-2 0  9993",
        "tle_line2": "2 30898  99.0256 272.9152 0041577  73.1873 287.3914 15.23871046665583"
      },
      "geometry": {
        "type": "Point",
        "coordinates": [
          110.73083100383658,
          61.79119803862319
        ]
      }
    },
    {
      "type": "Feature",
      "properties": {
        "norad_id": 30899,
        "name": "FENGYUN 1C DEB",
        "group": "fengyun-1c-debris",
        "lat": -74.74333951279574,
        "lon": 41.40819428216412,
        "alt_km": 764.599447287349,
        "timestamp": "2025-12-25T11:37:44.714705+00:00",
        "meta_object_name": "FENGYUN 1C DEB",
        "meta_object_id": "1999-025AYM",
        "meta_epoch": "2025-12-22T12:39:57.136896",
        "meta_mean_motion": 14.33729751,
        "meta_eccentricity": 0.00306026,
        "meta_inclination": 99.1768,
        "meta_ra_of_asc_node": 254.6206,
        "meta_arg_of_pericenter": 262.1688,
        "meta_mean_anomaly": 222.6158,
        "meta_ephemeris_type": 0,
        "meta_classification_type": "U",
        "meta_norad_cat_id": 30899,
        "meta_element_set_no": 999,
        "meta_rev_at_epoch": 96795,
        "meta_bstar": 0.0023049821,
        "meta_mean_motion_dot": 6.39e-05,
        "meta_mean_motion_ddot": 0,
        "tle_line1": "1 30899U 99025AYM 25356.52774464  .00006390  00000+0  23050-2 0  9993",
        "tle_line2": "2 30899  99.1768 254.6206 0030602 262.1688 222.6158 14.33729751967954"
      },
      "geometry": {
        "type": "Point",
        "coordinates": [
          41.40819428216412,
          -74.74333951279574
        ]
      }
    },
    {
      "type": "Feature",
      "properties": {
        "norad_id": 30903,
        "name": "FENGYUN 1C DEB",
        "group": "fengyun-1c-debris",
        "lat": 5.024965510831156,
        "lon": 66.18378179421653,
        "alt_km": 934.5238671255684,
        "timestamp": "2025-12-25T11:37:44.714715+00:00",
        "meta_object_name": "FENGYUN 1C DEB",
        "meta_object_id": "1999-025AYR",
        "meta_epoch": "2025-12-23T22:43:24.937824",
        "meta_mean_motion": 13.97601805,
        "meta_eccentricity": 0.0096602,
        "meta_inclination": 99.3704,
        "meta_ra_of_asc_node": 243.7838,
        "meta_arg_of_pericenter": 63.0235,
        "meta_mean_anomaly": 298.0753,
        "meta_ephemeris_type": 0,
        "meta_classification_type": "U",
        "meta_norad_cat_id": 30903,
        "meta_element_set_no": 999,
        "meta_rev_at_epoch": 68861,
        "meta_bstar": 1.9133e-05,
        "meta_mean_motion_dot": -1.8e-07,
        "meta_mean_motion_ddot": 0,
        "tle_line1": "1 30903U 99025AYR 25357.94681641 -.00000018  00000+0  19133-4 0  9991",
        "tle_line2": "2 30903  99.3704 243.7838 0096602  63.0235 298.0753 13.97601805688619"
      },
      "geometry": {
        "type": "Point",
        "coordinates": [
          66.18378179421653,
          5.024965510831156
        ]
      }
    },
    {
      "type": "Feature",
      "properties": {
        "norad_id": 30905,
        "name": "FENGYUN 1C DEB",
        "group": "fengyun-1c-debris",
        "lat": 13.966389646970788,
        "lon": 72.66224373171447,
        "alt_km": 798.3372055092414,
        "timestamp": "2025-12-25T11:37:44.714725+00:00",
        "meta_object_name": "FENGYUN 1C DEB",
        "meta_object_id": "1999-025AYT",
        "meta_epoch": "2025-12-23T10:26:55.840128",
        "meta_mean_motion": 14.17883966,
        "meta_eccentricity": 0.00562256,
        "meta_inclination": 98.8882,
        "meta_ra_of_asc_node": 72.8422,
        "meta_arg_of_pericenter": 50.3782,
        "meta_mean_anomaly": 310.2336,
        "meta_ephemeris_type": 0,
        "meta_classification_type": "U",
        "meta_norad_cat_id": 30905,
        "meta_element_set_no": 999,
        "meta_rev_at_epoch": 96274,
        "meta_bstar": 0.001041541,
        "meta_mean_motion_dot": 2.117e-05,
        "meta_mean_motion_ddot": 0,
        "tle_line1": "1 30905U 99025AYT 25357.43536852  .00002117  00000+0  10415-2 0  9993",
        "tle_line2": "2 30905  98.8882  72.8422 0056225  50.3782 310.2336 14.17883966962741"
      },
      "geometry": {
        "type": "Point",
        "coordinates": [
          72.66224373171447,
          13.966389646970788
        ]
      }
    },
    {
      "type": "Feature",
      "properties": {
        "norad_id": 30907,
        "name": "FENGYUN 1C DEB",
        "group": "fengyun-1c-debris",
        "lat": -24.43566557223585,
        "lon": -163.57358133355442,
        "alt_km": 854.9229024428923,
        "timestamp": "2025-12-25T11:37:44.714735+00:00",
        "meta_object_name": "FENGYUN 1C DEB",
        "meta_object_id": "1999-025AYV",
        "meta_epoch": "2025-12-24T21:05:44.215008",
        "meta_mean_motion": 14.15129204,
        "meta_eccentricity": 0.0056279,
        "meta_inclination": 99.9513,
        "meta_ra_of_asc_node": 20.3271,
        "meta_arg_of_pericenter": 105.266,
        "meta_mean_anomaly": 255.474,
        "meta_ephemeris_type": 0,
        "meta_classification_type": "U",
        "meta_norad_cat_id": 30907,
        "meta_element_set_no": 999,
        "meta_rev_at_epoch": 1721,
        "meta_bstar": 0.00089271,
        "meta_mean_motion_dot": 1.706e-05,
        "meta_mean_motion_ddot": 0,
        "tle_line1": "1 30907U 99025AYV 25358.87898397  .00001706  00000+0  89271-3 0  9999",
        "tle_line2": "2 30907  99.9513  20.3271 0056279 105.2660 255.4740 14.15129204 17218"
      },
      "geometry": {
        "type": "Point",
        "coordinates": [
          -163.57358133355442,
          -24.43566557223585
        ]
      }
    }
  ]
}